CCSDS_OMM_VERS = 2.0
CREATION_DATE  = 
ORIGINATOR     = 

OBJECT_NAME    = STARLINK-35219
OBJECT_ID      = 2025-259X
CENTER_NAME    = EARTH
REF_FRAME      = TEME
TIME_SYSTEM    = UTC
MEAN_ELEMENT_THEORY = SGP/SGP4

EPOCH          = 2025-11-26T22:00:05.999904
MEAN_MOTION    = 15.73018764
ECCENTRICITY   = .00014483
INCLINATION    = 42.9999
RA_OF_ASC_NODE = 140.3060
ARG_OF_PERICENTER = 281.2851
MEAN_ANOMALY   = 293.4002

EPHEMERIS_TYPE = 0
CLASSIFICATION_TYPE = U
NORAD_CAT_ID   = 66443
ELEMENT_SET_NO = 999
REV_AT_EPOCH   = 362
BSTAR          = -.1509047E-1
MEAN_MOTION_DOT = -.185237E-1
MEAN_MOTION_DDOT = 0

CCSDS_OMM_VERS = 2.0
CREATION_DATE  = 
ORIGINATOR     = 

OBJECT_NAME    = STARLINK-35360
OBJECT_ID      = 2025-259Y
CENTER_NAME    = EARTH
REF_FRAME      = TEME
TIME_SYSTEM    = UTC
MEAN_ELEMENT_THEORY = SGP/SGP4

EPOCH          = 2025-11-26T22:00:05.999904
MEAN_MOTION    = 15.73020925
ECCENTRICITY   = .00014006
INCLINATION    = 42.9999
RA_OF_ASC_NODE = 140.2909
ARG_OF_PERICENTER = 276.8965
MEAN_ANOMALY   = 303.5472

EPHEMERIS_TYPE = 0
CLASSIFICATION_TYPE = U
NORAD_CAT_ID   = 66444
ELEMENT_SET_NO = 999
REV_AT_EPOCH   = 373
BSTAR          = -.15184697E-1
MEAN_MOTION_DOT = -.1862516E-1
MEAN_MOTION_DDOT = 0

CCSDS_OMM_VERS = 2.0
CREATION_DATE  = 
ORIGINATOR     = 

OBJECT_NAME    = STARLINK-34698
OBJECT_ID      = 2025-259Z
CENTER_NAME    = EARTH
REF_FRAME      = TEME
TIME_SYSTEM    = UTC
MEAN_ELEMENT_THEORY = SGP/SGP4

EPOCH          = 2025-11-26T22:00:05.999904
MEAN_MOTION    = 15.73022366
ECCENTRICITY   = .00014225
INCLINATION    = 42.9999
RA_OF_ASC_NODE = 140.3006
ARG_OF_PERICENTER = 278.9417
MEAN_ANOMALY   = 297.6638

EPHEMERIS_TYPE = 0
CLASSIFICATION_TYPE = U
NORAD_CAT_ID   = 66445
ELEMENT_SET_NO = 999
REV_AT_EPOCH   = 362
BSTAR          = -.15174306E-1
MEAN_MOTION_DOT = -.186153E-1
MEAN_MOTION_DDOT = 0

CCSDS_OMM_VERS = 2.0
CREATION_DATE  = 
ORIGINATOR     = 

OBJECT_NAME    = STARLINK-34986
OBJECT_ID      = 2025-259AA
CENTER_NAME    = EARTH
REF_FRAME      = TEME
TIME_SYSTEM    = UTC
MEAN_ELEMENT_THEORY = SGP/SGP4

EPOCH          = 2025-11-26T22:00:05.999904
MEAN_MOTION    = 15.73023872
ECCENTRICITY   = .00014521
INCLINATION    = 43.0000
RA_OF_ASC_NODE = 140.2955
ARG_OF_PERICENTER = 274.3416
MEAN_ANOMALY   = 304.1778

EPHEMERIS_TYPE = 0
CLASSIFICATION_TYPE = U
NORAD_CAT_ID   = 66446
ELEMENT_SET_NO = 999
REV_AT_EPOCH   = 373
BSTAR          = -.1516411E-1
MEAN_MOTION_DOT = -.1860576E-1
MEAN_MOTION_DDOT = 0

CCSDS_OMM_VERS = 2.0
CREATION_DATE  = 
ORIGINATOR     = 

OBJECT_NAME    = STARLINK-34851
OBJECT_ID      = 2025-259AB
CENTER_NAME    = EARTH
REF_FRAME      = TEME
TIME_SYSTEM    = UTC
MEAN_ELEMENT_THEORY = SGP/SGP4

EPOCH          = 2025-11-26T22:00:05.999904
MEAN_MOTION    = 15.73011563
ECCENTRICITY   = .00015432
INCLINATION    = 42.9998
RA_OF_ASC_NODE = 140.2859
ARG_OF_PERICENTER = 272.3328
MEAN_ANOMALY   = 310.0303

EPHEMERIS_TYPE = 0
CLASSIFICATION_TYPE = U
NORAD_CAT_ID   = 66447
ELEMENT_SET_NO = 999
REV_AT_EPOCH   = 362
BSTAR          = -.15058136E-1
MEAN_MOTION_DOT = -.1848501E-1
MEAN_MOTION_DDOT = 0

CCSDS_OMM_VERS = 2.0
CREATION_DATE  = 
ORIGINATOR     = 

OBJECT_NAME    = STARLINK-35355
OBJECT_ID      = 2025-259AC
CENTER_NAME    = EARTH
REF_FRAME      = TEME
TIME_SYSTEM    = UTC
MEAN_ELEMENT_THEORY = SGP/SGP4

EPOCH          = 2025-11-26T22:00:05.999904
MEAN_MOTION    = 15.73021341
ECCENTRICITY   = .00014284
INCLINATION    = 42.9998
RA_OF_ASC_NODE = 140.2815
ARG_OF_PERICENTER = 266.8534
MEAN_ANOMALY   = 317.4244

EPHEMERIS_TYPE = 0
CLASSIFICATION_TYPE = U
NORAD_CAT_ID   = 66448
ELEMENT_SET_NO = 999
REV_AT_EPOCH   = 373
BSTAR          = -.15178037E-1
MEAN_MOTION_DOT = -.1861861E-1
MEAN_MOTION_DDOT = 0

CCSDS_OMM_VERS = 2.0
CREATION_DATE  = 
ORIGINATOR     = 

OBJECT_NAME    = STARLINK-34720
OBJECT_ID      = 2025-259AD
CENTER_NAME    = EARTH
REF_FRAME      = TEME
TIME_SYSTEM    = UTC
MEAN_ELEMENT_THEORY = SGP/SGP4

EPOCH          = 2025-11-26T22:00:05.999904
MEAN_MOTION    = 15.73023094
ECCENTRICITY   = .00014307
INCLINATION    = 42.9999
RA_OF_ASC_NODE = 140.2763
ARG_OF_PERICENTER = 268.2848
MEAN_ANOMALY   = 317.9094

EPHEMERIS_TYPE = 0
CLASSIFICATION_TYPE = U
NORAD_CAT_ID   = 66449
ELEMENT_SET_NO = 999
REV_AT_EPOCH   = 362
BSTAR          = -.15201108E-1
MEAN_MOTION_DOT = -.186444E-1
MEAN_MOTION_DDOT = 0

CCSDS_OMM_VERS = 2.0
CREATION_DATE  = 
ORIGINATOR     = 

OBJECT_NAME    = STARLINK-35334
OBJECT_ID      = 2025-259AE
CENTER_NAME    = EARTH
REF_FRAME      = TEME
TIME_SYSTEM    = UTC
MEAN_ELEMENT_THEORY = SGP/SGP4

EPOCH          = 2025-11-26T22:00:05.999904
MEAN_MOTION    = 15.73025797
ECCENTRICITY   = .00014243
INCLINATION    = 43.0000
RA_OF_ASC_NODE = 140.2706
ARG_OF_PERICENTER = 273.4347
MEAN_ANOMALY   = 314.6695

EPHEMERIS_TYPE = 0
CLASSIFICATION_TYPE = U
NORAD_CAT_ID   = 66450
ELEMENT_SET_NO = 999
REV_AT_EPOCH   = 373
BSTAR          = -.1518546E-1
MEAN_MOTION_DOT = -.1862959E-1
MEAN_MOTION_DDOT = 0

CCSDS_OMM_VERS = 2.0
CREATION_DATE  = 
ORIGINATOR     = 

OBJECT_NAME    = VIASAT-3 F2
OBJECT_ID      = 2025-261A
CENTER_NAME    = EARTH
REF_FRAME      = TEME
TIME_SYSTEM    = UTC
MEAN_ELEMENT_THEORY = SGP/SGP4

EPOCH          = 2025-11-26T17:55:45.153696
MEAN_MOTION    = 2.28187844
ECCENTRICITY   = .23413249
INCLINATION    = 5.5832
RA_OF_ASC_NODE = 293.8608
ARG_OF_PERICENTER = 182.7714
MEAN_ANOMALY   = 334.4159

EPHEMERIS_TYPE = 0
CLASSIFICATION_TYPE = U
NORAD_CAT_ID   = 66454
ELEMENT_SET_NO = 999
REV_AT_EPOCH   = 28
BSTAR          = 0
MEAN_MOTION_DOT = -.51E-6
MEAN_MOTION_DDOT = 0

CCSDS_OMM_VERS = 2.0
CREATION_DATE  = 
ORIGINATOR     = 

OBJECT_NAME    = ATLAS 5 CENTAUR R/B
OBJECT_ID      = 2025-261B
CENTER_NAME    = EARTH
REF_FRAME      = TEME
TIME_SYSTEM    = UTC
MEAN_ELEMENT_THEORY = SGP/SGP4

EPOCH          = 2025-11-26T18:27:12.771648
MEAN_MOTION    = 2.28258333
ECCENTRICITY   = .23299319
INCLINATION    = 6.1673
RA_OF_ASC_NODE = 293.2138
ARG_OF_PERICENTER = 183.2713
MEAN_ANOMALY   = 340.9993

EPHEMERIS_TYPE = 0
CLASSIFICATION_TYPE = U
NORAD_CAT_ID   = 66455
ELEMENT_SET_NO = 999
REV_AT_EPOCH   = 28
BSTAR          = 0
MEAN_MOTION_DOT = -.52E-6
MEAN_MOTION_DDOT = 0

CCSDS_OMM_VERS = 2.0
CREATION_DATE  = 
ORIGINATOR     = 

OBJECT_NAME    = STARLINK-35643
OBJECT_ID      = 2025-262A
CENTER_NAME    = EARTH
REF_FRAME      = TEME
TIME_SYSTEM    = UTC
MEAN_ELEMENT_THEORY = SGP/SGP4

EPOCH          = 2025-11-26T14:48:15.709536
MEAN_MOTION    = 15.84647709
ECCENTRICITY   = .00049234
INCLINATION    = 42.9974
RA_OF_ASC_NODE = 166.9016
ARG_OF_PERICENTER = 285.1167
MEAN_ANOMALY   = 74.9161

EPHEMERIS_TYPE = 0
CLASSIFICATION_TYPE = U
NORAD_CAT_ID   = 66456
ELEMENT_SET_NO = 999
REV_AT_EPOCH   = 304
BSTAR          = .1318713E-2
MEAN_MOTION_DOT = .326193E-2
MEAN_MOTION_DDOT = 0

CCSDS_OMM_VERS = 2.0
CREATION_DATE  = 
ORIGINATOR     = 

OBJECT_NAME    = STARLINK-35466
OBJECT_ID      = 2025-262B
CENTER_NAME    = EARTH
REF_FRAME      = TEME
TIME_SYSTEM    = UTC
MEAN_ELEMENT_THEORY = SGP/SGP4

EPOCH          = 2025-11-26T00:00:05.999616
MEAN_MOTION    = 15.86210657
ECCENTRICITY   = .00018335
INCLINATION    = 42.9980
RA_OF_ASC_NODE = 170.6893
ARG_OF_PERICENTER = 283.3686
MEAN_ANOMALY   = 157.3627

EPHEMERIS_TYPE = 0
CLASSIFICATION_TYPE = U
NORAD_CAT_ID   = 66457
ELEMENT_SET_NO = 999
REV_AT_EPOCH   = 294
BSTAR          = -.54995513E-2
MEAN_MOTION_DOT = -.125471E-1
MEAN_MOTION_DDOT = 0

