STARLINK-35219          
1 66443U 25259X   25330.91673611 -.01852370  00000+0 -15090-1 0  9996
2 66443  42.9999 140.3060 0001448 281.2851 293.4002 15.73018764  3628
STARLINK-35360          
1 66444U 25259Y   25330.91673611 -.01862516  00000+0 -15185-1 0  9995
2 66444  42.9999 140.2909 0001400 276.8965 303.5472 15.73020925  3732
STARLINK-34698          
1 66445U 25259Z   25330.91673611 -.01861530  00000+0 -15174-1 0  9999
2 66445  42.9999 140.3006 0001422 278.9417 297.6638 15.73022366  3627
STARLINK-34986          
1 66446U 25259AA  25330.91673611 -.01860576  00000+0 -15164-1 0  9998
2 66446  43.0000 140.2955 0001452 274.3416 304.1778 15.73023872  3731
STARLINK-34851          
1 66447U 25259AB  25330.91673611 -.01848501  00000+0 -15058-1 0  9995
2 66447  42.9998 140.2859 0001543 272.3328 310.0303 15.73011563  3622
STARLINK-35355          
1 66448U 25259AC  25330.91673611 -.01861861  00000+0 -15178-1 0  9993
2 66448  42.9998 140.2815 0001428 266.8534 317.4244 15.73021341  3736
STARLINK-34720          
1 66449U 25259AD  25330.91673611 -.01864440  00000+0 -15201-1 0  9997
2 66449  42.9999 140.2763 0001430 268.2848 317.9094 15.73023094  3620
STARLINK-35334          
1 66450U 25259AE  25330.91673611 -.01862959  00000+0 -15185-1 0  9993
2 66450  43.0000 140.2706 0001424 273.4347 314.6695 15.73025797  3734
VIASAT-3 F2             
1 66454U 25261A   25330.74705039 -.00000051  00000+0  00000+0 0  9994
2 66454   5.5832 293.8608 2341324 182.7714 334.4159  2.28187844   288
ATLAS 5 CENTAUR R/B     
1 66455U 25261B   25330.76889782 -.00000052  00000+0  00000+0 0  9996
2 66455   6.1673 293.2138 2329931 183.2713 340.9993  2.28258333   286
STARLINK-35643          
1 66456U 25262A   25330.61684849  .00326193  00000+0  13187-2 0  9998
2 66456  42.9974 166.9016 0004923 285.1167  74.9161 15.84647709  3047
STARLINK-35466          
1 66457U 25262B   25330.00006944 -.01254710  00000+0 -54996-2 0  9997
2 66457  42.9980 170.6893 0001833 283.3686 157.3627 15.86210657  2944
